[{"OBJECT_NAME":"KSM1-D","OBJECT_ID":"2020-081C","EPOCH":"2026-03-09T23:16:47.448768","MEAN_MOTION":15.23167768,"ECCENTRICITY":0.00021749,"INCLINATION":36.897,"RA_OF_ASC_NODE":317.8915,"ARG_OF_PERICENTER":144.8142,"MEAN_ANOMALY":215.275,"EPHEMERIS_TYPE":0,"CLASSIFICATION_TYPE":"U","NORAD_CAT_ID":46907,"ELEMENT_SET_NO":999,"REV_AT_EPOCH":29395,"BSTAR":0.00045744664,"MEAN_MOTION_DOT":0.00010982,"MEAN_MOTION_DDOT":0},{"OBJECT_NAME":"OBJECT C","OBJECT_ID":"2017-042C","EPOCH":"2026-03-09T10:17:10.798080","MEAN_MOTION":15.23148717,"ECCENTRICITY":0.00098979,"INCLINATION":97.4062,"RA_OF_ASC_NODE":245.0163,"ARG_OF_PERICENTER":70.2407,"MEAN_ANOMALY":289.9897,"EPHEMERIS_TYPE":0,"CLASSIFICATION_TYPE":"U","NORAD_CAT_ID":42827,"ELEMENT_SET_NO":999,"REV_AT_EPOCH":47263,"BSTAR":0.00073854586,"MEAN_MOTION_DOT":0.00017421,"MEAN_MOTION_DDOT":0}]
